NORAD_CAT_ID,OBJECT_NAME,OBJECT_TYPE,EPOCH,MEAN_MOTION,ECCENTRICITY,INCLINATION,RA_OF_ASC_NODE,ARG_OF_PERICENTER,MEAN_ANOMALY,BSTAR,MEAN_MOTION_DOT,MEAN_MOTION_DDOT,TLE_LINE0,TLE_LINE1,TLE_LINE2,SEMIMAJOR_AXIS,PERIOD,APOGEE,PERIGEE,DECAYED
51987.0,STARLINK-3644,PAYLOAD,2022-12-19 02:12:54,15.08825003,0.0002673,53.2178,281.0862,26.9932,333.1198,-2.5487e-05,-6.94e-06,0.0,0 STARLINK-3644,1 51987U 22025AH  22353.09229331 -.00000694  00000-0 -25487-4 0  9996,2 51987  53.2178 281.0862 0002673  26.9932 333.1198 15.08825003 44529,6917.926,95.439,541.64,537.942,0.0
51987.0,STARLINK-3644,PAYLOAD,2022-12-20 02:03:38,15.08857997,0.0002723,53.2181,276.6252,28.065,332.0488,0.00026741,3.972e-05,0.0,0 STARLINK-3644,1 51987U 22025AH  22354.08586709  .00003972  00000-0  26741-3 0  9994,2 51987  53.2181 276.6252 0002723  28.0650 332.0488 15.08857997 44675,6917.825,95.436,541.5740000000002,537.807,0.0
51987.0,STARLINK-3644,PAYLOAD,2022-12-20 11:35:57,15.08855951,0.0002537,53.2175,274.8412,30.914,329.2001,0.00015683,2.21e-05,0.0,0 STARLINK-3644,1 51987U 22025AH  22354.48330848  .00002210  00000-0  15683-3 0  9996,2 51987  53.2175 274.8412 0002537  30.9140 329.2001 15.08855951 43648,6917.831999999999,95.437,541.452,537.942,0.0
51987.0,STARLINK-3644,PAYLOAD,2022-12-20 17:57:30,15.08847209,0.000268,53.2174,273.6525,30.8418,329.2731,0.00020516,2.979e-05,0.0,0 STARLINK-3644,1 51987U 22025AH  22354.74827295  .00002979  00000-0  20516-3 0  9995,2 51987  53.2174 273.6525 0002680  30.8418 329.2731 15.08847209 44777,6917.858,95.437,541.577,537.869,0.0
51987.0,STARLINK-3644,PAYLOAD,2022-12-20 22:43:41,15.08835542,0.0002612,53.2174,272.7584,24.6424,335.4692,0.00016533,2.344e-05,0.0,0 STARLINK-3644,1 51987U 22025AH  22354.94700346  .00002344  00000-0  16533-3 0  9994,2 51987  53.2174 272.7584 0002612  24.6424 335.4692 15.08835542 44801,6917.894,95.438,541.566,537.952,0.0
51987.0,STARLINK-3644,PAYLOAD,2022-12-21 11:26:46,15.08823816,0.0002814,53.2171,270.3767,26.835,333.2787,-0.00022115,-3.805e-05,0.0,0 STARLINK-3644,1 51987U 22025AH  22355.47692967 -.00003805  00000-0 -22115-3 0  9990,2 51987  53.2171 270.3767 0002814  26.8350 333.2787 15.08823816 43790,6917.93,95.439,541.742,537.8480000000002,0.0
51987.0,STARLINK-3644,PAYLOAD,2022-12-22 11:17:33,15.08834816,0.0002419,53.2164,265.9211,26.3946,333.7169,-6.0857e-05,-1.257e-05,0.0,0 STARLINK-3644,1 51987U 22025AH  22356.47053133 -.00001257  00000-0 -60857-4 0  9992,2 51987  53.2164 265.9211 0002419  26.3946 333.7169 15.08834816 43941,6917.896,95.438,541.435,538.0880000000002,0.0
51987.0,STARLINK-3644,PAYLOAD,2022-12-23 11:08:21,15.08835641,0.0002765,53.2167,261.4593,28.064,332.0501,0.00033494,5.046e-05,0.0,0 STARLINK-3644,1 51987U 22025AH  22357.46413924  .00005046  00000-0  33494-3 0  9994,2 51987  53.2167 261.4593 0002765  28.0640 332.0501 15.08835641 44098,6917.894,95.438,541.672,537.846,0.0
51987.0,STARLINK-3644,PAYLOAD,2022-12-23 17:29:54,15.08840909,0.0002611,53.2165,260.2694,29.2134,330.9004,0.00041286,6.289e-05,0.0,0 STARLINK-3644,1 51987U 22025AH  22357.72909820  .00006289  00000-0  41286-3 0  9996,2 51987  53.2165 260.2694 0002611  29.2134 330.9004 15.08840909 45220,6917.878000000002,95.437,541.549,537.936,0.0
51987.0,STARLINK-3644,PAYLOAD,2022-12-24 03:02:12,15.08859853,0.0002575,53.2159,258.4862,29.9709,330.14300000000014,0.00057164,8.826e-05,0.0,0 STARLINK-3644,1 51987U 22025AH  22358.12653033  .00008826  00000-0  57164-3 0  9994,2 51987  53.2159 258.4862 0002575  29.9709 330.1430 15.08859853 45282,6917.82,95.436,541.466,537.903,0.0
51987.0,STARLINK-3644,PAYLOAD,2022-12-24 10:59:07,15.08854081,0.0002657,53.2154,256.9996,27.7303,332.3831,0.00031238,4.689e-05,0.0,0 STARLINK-3644,1 51987U 22025AH  22358.45772969  .00004689  00000-0  31238-3 0  9997,2 51987  53.2154 256.9996 0002657  27.7303 332.3831 15.08854081 44247,6917.837,95.437,541.54,537.864,0.0
51987.0,STARLINK-3644,PAYLOAD,2022-12-24 17:20:40,15.08855441,0.0002699,53.2161,255.8107,28.0118,332.1019,0.00022904,3.3600000000000004e-05,0.0,0 STARLINK-3644,1 51987U 22025AH  22358.72268724  .00003360  00000-0  22904-3 0  9991,2 51987  53.2161 255.8107 0002699  28.0118 332.1019 15.08855441 45373,6917.833000000001,95.437,541.565,537.831,0.0
51987.0,STARLINK-3644,PAYLOAD,2022-12-24 20:31:26,15.08852562,0.000271,53.2162,255.2159,28.3684,331.7455,0.00015598,2.196e-05,0.0,0 STARLINK-3644,1 51987U 22025AH  22358.85516742  .00002196  00000-0  15598-3 0  9998,2 51987  53.2162 255.2159 0002710  28.3684 331.7455 15.08852562 44302,6917.842,95.437,541.582,537.832,0.0
51987.0,STARLINK-3644,PAYLOAD,2022-12-25 10:49:54,15.08844479,0.0002732,53.2159,252.5388,29.6402,330.4745,-2.1965e-05,-6.38e-06,0.0,0 STARLINK-3644,1 51987U 22025AH  22359.45132757 -.00000638  00000-0 -21965-4 0  9992,2 51987  53.2159 252.5388 0002732  29.6402 330.4745 15.08844479 45484,6917.8669999999975,95.437,541.622,537.842,0.0
51987.0,STARLINK-3644,PAYLOAD,2022-12-25 17:11:27,15.08846221,0.0002739,53.216,251.3489,30.2506,329.8644,1.8205e-05,1e-08,0.0,0 STARLINK-3644,1 51987U 22025AH  22359.71628538  .00000001  00000-0  18205-4 0  9993,2 51987  53.2160 251.3489 0002739  30.2506 329.8644 15.08846221 44436,6917.861,95.437,541.621,537.832,0.0
51987.0,STARLINK-3644,PAYLOAD,2022-12-26 02:43:46,15.08843352,0.0002708,53.2168,249.5642,29.655,330.4595,-0.00010344,-1.935e-05,0.0,0 STARLINK-3644,1 51987U 22025AH  22360.11372954 -.00001935  00000-0 -10344-3 0  9991,2 51987  53.2168 249.5642 0002708  29.6550 330.4595 15.08843352 44492,6917.87,95.437,541.609,537.862,0.0
51987.0,STARLINK-3644,PAYLOAD,2022-12-26 17:02:14,15.0884142,0.0002678,53.2171,246.8883,27.5363,332.5771,1.7788e-05,-5e-08,0.0,0 STARLINK-3644,1 51987U 22025AH  22360.70988668 -.00000005  00000-0  17788-4 0  9997,2 51987  53.2171 246.8883 0002678  27.5363 332.5771 15.08841420 45672,6917.876,95.437,541.594,537.888,0.0
51987.0,STARLINK-3644,PAYLOAD,2022-12-27 08:56:05,15.0884769,0.000275,53.2169,243.9147,28.1128,332.0012,4.6867e-05,4.58e-06,0.0,0 STARLINK-3644,1 51987U 22025AH  22361.37228097  .00000458  00000-0  46867-4 0  9995,2 51987  53.2169 243.9147 0002750  28.1128 332.0012 15.08847690 44685,6917.857,95.437,541.624,537.819,0.0
51987.0,STARLINK-3644,PAYLOAD,2022-12-27 16:53:00,15.08848828,0.0002667,53.2167,242.4278,28.0995,332.014,0.00010368,1.362e-05,0.0,0 STARLINK-3644,1 51987U 22025AH  22361.70347828  .00001362  00000-0  10368-3 0  9997,2 51987  53.2167 242.4278 0002667  28.0995 332.0140 15.08848828 45823,6917.853,95.437,541.563,537.873,0.0
51987.0,STARLINK-3644,PAYLOAD,2022-12-27 20:03:47,15.08842801,0.0002702,53.2166,241.8331,25.1123,335.0,0.00012624,1.721e-05,0.0,0 STARLINK-3644,1 51987U 22025AH  22361.83596105  .00001721  00000-0  12624-3 0  9991,2 51987  53.2166 241.8331 0002702  25.1123 335.0000 15.08842801 44750,6917.871999999999,95.437,541.606,537.868,0.0
51987.0,STARLINK-3644,PAYLOAD,2022-12-27 21:39:10,15.08841673,0.0002713,53.2166,241.5358,25.3198,334.7927,0.00011311,1.512e-05,0.0,0 STARLINK-3644,1 51987U 22025AH  22361.90220223  .00001512  00000-0  11311-3 0  9994,2 51987  53.2166 241.5358 0002713  25.3198 334.7927 15.08841673 45854,6917.875,95.437,541.617,537.863,0.0
51987.0,STARLINK-3644,PAYLOAD,2022-12-29 00:40:45,15.08823989,0.0002744,53.2165,236.4809,26.2599,333.8532,-3.197e-05,-7.97e-06,0.0,0 STARLINK-3644,1 51987U 22025AH  22363.02830072 -.00000797  00000-0 -31970-4 0  9998,2 51987  53.2165 236.4809 0002744  26.2599 333.8532 15.08823989 46028,6917.929,95.439,541.693,537.896,0.0
51987.0,STARLINK-3644,PAYLOAD,2022-12-29 08:37:40,15.08827236,0.000279,53.2167,234.99400000000003,26.7981,333.3154,-4.7049e-05,-1.037e-05,0.0,0 STARLINK-3644,1 51987U 22025AH  22363.35950208 -.00001037  00000-0 -47049-4 0  9990,2 51987  53.2167 234.9940 0002790  26.7981 333.3154 15.08827236 44987,6917.919,95.438,541.715,537.854,0.0
51987.0,STARLINK-3644,PAYLOAD,2022-12-30 02:06:56,15.08822647,0.0002785,53.2168,231.7229,28.1439,331.9704,-9.1306e-05,-1.741e-05,0.0,0 STARLINK-3644,1 51987U 22025AH  22364.08815366 -.00001741  00000-0 -91306-4 0  9993,2 51987  53.2168 231.7229 0002785  28.1439 331.9704 15.08822647 46181,6917.933000000001,95.439,541.725,537.872,0.0
51987.0,STARLINK-3644,PAYLOAD,2022-12-30 08:28:28,15.0882546,0.0002445,53.2166,230.5336,31.9499,328.1641,-2.7972e-06,-3.33e-06,0.0,0 STARLINK-3644,1 51987U 22025AH  22364.35311166 -.00000333  00000-0 -27972-5 0  9997,2 51987  53.2166 230.5336 0002445  31.9499 328.1641 15.08825460 45134,6917.925,95.438,541.481,538.0980000000002,0.0
51987.0,STARLINK-3644,PAYLOAD,2022-12-31 00:22:20,15.08830792,0.000271,53.2161,227.5605,29.2942,330.8202,0.00020054,2.904e-05,0.0,0 STARLINK-3644,1 51987U 22025AH  22365.01550969  .00002904  00000-0  20054-3 0  9993,2 51987  53.2161 227.5605 0002710  29.2942 330.8202 15.08830792 46321,6917.909000000002,95.438,541.648,537.899,0.0
51987.0,STARLINK-3644,PAYLOAD,2022-12-31 08:19:15,15.08839832,0.0002819999999999,53.2163,226.0733,28.2616,331.8529,0.00021331,3.108e-05,0.0,0 STARLINK-3644,1 51987U 22025AH  22365.34670605  .00003108  00000-0  21331-3 0  9995,2 51987  53.2163 226.0733 0002820  28.2616 331.8529 15.08839832 45289,6917.880999999999,95.438,541.697,537.795,0.0
51987.0,STARLINK-3644,PAYLOAD,2022-12-31 17:51:34,15.08842731,0.0002824,53.2162,224.2891,28.024,332.0903,0.00031924,4.796e-05,0.0,0 STARLINK-3644,1 51987U 22025AH  22365.74414358  .00004796  00000-0  31924-3 0  9993,2 51987  53.2162 224.2891 0002824  28.0240 332.0903 15.08842731 45346,6917.871999999999,95.437,541.691,537.783,0.0
51987.0,STARLINK-3644,PAYLOAD,2023-01-01 08:10:02,15.088426,0.0002938,53.2152,221.6128,28.4452,331.67,0.00022088,3.229e-05,0.0,0 STARLINK-3644,1 51987U 22025AH  23001.34031219  .00003229  00000-0  22088-3 0  9999,2 51987  53.2152 221.6128 0002938  28.4452 331.6700 15.08842600 46520,6917.871999999999,95.437,541.77,537.705,0.0
